[{"OBJECT_NAME":"STARLINK-4375","OBJECT_ID":"2022-084D","EPOCH":"2026-03-09T17:37:42.898656","MEAN_MOTION":15.05650501,"ECCENTRICITY":6.03e-6,"INCLINATION":97.6036,"RA_OF_ASC_NODE":131.2511,"ARG_OF_PERICENTER":146.3134,"MEAN_ANOMALY":213.8096,"EPHEMERIS_TYPE":0,"CLASSIFICATION_TYPE":"U","NORAD_CAT_ID":53192,"ELEMENT_SET_NO":999,"REV_AT_EPOCH":20005,"BSTAR":2.0204406e-5,"MEAN_MOTION_DOT":2.31e-6,"MEAN_MOTION_DDOT":0},{"OBJECT_NAME":"PEGASUS DEB","OBJECT_ID":"1994-029AFD","EPOCH":"2026-03-09T13:52:28.077600","MEAN_MOTION":14.64924575,"ECCENTRICITY":0.0184481,"INCLINATION":81.9461,"RA_OF_ASC_NODE":171.1004,"ARG_OF_PERICENTER":322.7223,"MEAN_ANOMALY":96.435,"EPHEMERIS_TYPE":0,"CLASSIFICATION_TYPE":"U","NORAD_CAT_ID":39318,"ELEMENT_SET_NO":999,"REV_AT_EPOCH":26349,"BSTAR":0.00019214,"MEAN_MOTION_DOT":1.341e-5,"MEAN_MOTION_DDOT":0}]
